start=new Date('2021-11-22T00:00:00.000Z').valueOf();
sats=[{"ARG_OF_PERICENTER":"65.3164","OBJECT_ID":"2021-017V","SITE":"AFETR","CLASSIFICATION_TYPE":"U","PERIAPSIS":"546.339","EPHEMERIS_TYPE":"0","DECAY_DATE":null,"SEMIMAJOR_AXIS":"6925.356","MEAN_ELEMENT_THEORY":"SGP4","ECCENTRICITY":"0.00012740","NORAD_CAT_ID":"47741","GP_ID":"190203476","FILE":"3220686","ELEMENT_SET_NO":"999","TLE_LINE2":"2 47741  53.0555  55.8598 0001274  65.3164 294.7958 15.06397500 41226","MEAN_MOTION":"15.06397500","TIME_SYSTEM":"UTC","MEAN_ANOMALY":"294.7958","EPOCH":"2021-11-21T12:43:19.579008","MEAN_MOTION_DOT":"0.00000444","CENTER_NAME":"EARTH","APOAPSIS":"548.104","OBJECT_TYPE":"PAYLOAD","INCLINATION":"53.0555","PERIOD":"95.592","BSTAR":"0.00004866700000","COUNTRY_CODE":"US","LAUNCH_DATE":"2021-03-04","RA_OF_ASC_NODE":"55.8598","MEAN_MOTION_DDOT":"0.0000000000000","OBJECT_NAME":"STARLINK-2154","REV_AT_EPOCH":"4122","REF_FRAME":"TEME","RCS_SIZE":"LARGE","TLE_LINE1":"1 47741U 21017V   21325.53008772  .00000444  00000-0  48667-4 0  9996"},{"MEAN_ANOMALY":"286.6838","TIME_SYSTEM":"UTC","TLE_LINE2":"2 47742  53.0567  46.9977 0001189  73.4282 286.6838 15.06391926 41377","MEAN_MOTION":"15.06391926","EPOCH":"2021-11-21T06:38:26.250144","OBJECT_TYPE":"PAYLOAD","INCLINATION":"53.0567","CENTER_NAME":"EARTH","APOAPSIS":"548.062","MEAN_MOTION_DOT":"0.00001005","PERIOD":"95.593","COUNTRY_CODE":"US","BSTAR":"0.00008635100000","LAUNCH_DATE":"2021-03-04","REV_AT_EPOCH":"4137","OBJECT_NAME":"STARLINK-2156","MEAN_MOTION_DDOT":"0.0000000000000","RA_OF_ASC_NODE":"46.9977","TLE_LINE1":"1 47742U 21017W   21325.27669271  .00001005  00000-0  86351-4 0  9991","RCS_SIZE":"LARGE","REF_FRAME":"TEME","OBJECT_ID":"2021-017W","ARG_OF_PERICENTER":"73.4282","SITE":"AFETR","CLASSIFICATION_TYPE":"U","EPHEMERIS_TYPE":"0","PERIAPSIS":"546.415","ECCENTRICITY":"0.00011890","MEAN_ELEMENT_THEORY":"SGP4","SEMIMAJOR_AXIS":"6925.373","DECAY_DATE":null,"GP_ID":"190203726","NORAD_CAT_ID":"47742","ELEMENT_SET_NO":"999","FILE":"3220686"},{"SITE":"AFETR","OBJECT_ID":"2021-017X","ARG_OF_PERICENTER":"75.8423","EPHEMERIS_TYPE":"0","PERIAPSIS":"546.639","CLASSIFICATION_TYPE":"U","ECCENTRICITY":"0.00008560","MEAN_ELEMENT_THEORY":"SGP4","SEMIMAJOR_AXIS":"6925.367","DECAY_DATE":null,"ELEMENT_SET_NO":"999","FILE":"3220686","GP_ID":"190204477","NORAD_CAT_ID":"47743","EPOCH":"2021-11-21T12:02:12.363072","MEAN_ANOMALY":"284.2661","TIME_SYSTEM":"UTC","TLE_LINE2":"2 47743  53.0571  45.9676 0000856  75.8423 284.2661 15.06394111 41389","MEAN_MOTION":"15.06394111","PERIOD":"95.593","INCLINATION":"53.0571","OBJECT_TYPE":"PAYLOAD","CENTER_NAME":"EARTH","APOAPSIS":"547.824","MEAN_MOTION_DOT":"0.00000494","LAUNCH_DATE":"2021-03-04","COUNTRY_CODE":"US","BSTAR":"0.00005205800000","TLE_LINE1":"1 47743U 21017X   21325.50153198  .00000494  00000-0  52058-4 0  9992","RCS_SIZE":"LARGE","REF_FRAME":"TEME","REV_AT_EPOCH":"4138","MEAN_MOTION_DDOT":"0.0000000000000","OBJECT_NAME":"STARLINK-2157","RA_OF_ASC_NODE":"45.9676"},{"CLASSIFICATION_TYPE":"U","PERIAPSIS":"546.395","EPHEMERIS_TYPE":"0","OBJECT_ID":"2021-017Y","ARG_OF_PERICENTER":"76.6264","SITE":"AFETR","GP_ID":"190208302","NORAD_CAT_ID":"47744","ELEMENT_SET_NO":"999","FILE":"3220801","MEAN_ELEMENT_THEORY":"SGP4","ECCENTRICITY":"0.00012190","DECAY_DATE":null,"SEMIMAJOR_AXIS":"6925.374","OBJECT_TYPE":"PAYLOAD","INCLINATION":"53.0564","MEAN_MOTION_DOT":"-0.00000053","APOAPSIS":"548.084","CENTER_NAME":"EARTH","PERIOD":"95.593","TIME_SYSTEM":"UTC","MEAN_ANOMALY":"283.4861","TLE_LINE2":"2 47744  53.0564  45.1909 0001219  76.6264 283.4861 15.06391551 40757","MEAN_MOTION":"15.06391551","EPOCH":"2021-11-21T16:16:59.048544","OBJECT_NAME":"STARLINK-2158","MEAN_MOTION_DDOT":"0.0000000000000","REV_AT_EPOCH":"4075","RA_OF_ASC_NODE":"45.1909","TLE_LINE1":"1 47744U 21017Y   21325.67846121 -.00000053  00000-0  15324-4 0  9993","REF_FRAME":"TEME","RCS_SIZE":"LARGE","BSTAR":"0.00001532400000","COUNTRY_CODE":"US","LAUNCH_DATE":"2021-03-04"},{"PERIOD":"95.593","OBJECT_TYPE":"PAYLOAD","INCLINATION":"53.0557","MEAN_MOTION_DOT":"0.00001406","CENTER_NAME":"EARTH","APOAPSIS":"548.024","EPOCH":"2021-11-21T09:00:25.328160","TIME_SYSTEM":"UTC","MEAN_ANOMALY":"286.5239","MEAN_MOTION":"15.06391810","TLE_LINE2":"2 47745  53.0557  56.5587 0001134  73.5874 286.5239 15.06391810 41197","TLE_LINE1":"1 47745U 21017Z   21325.37529315  .00001406  00000-0  11326-3 0  9993","REF_FRAME":"TEME","RCS_SIZE":"LARGE","MEAN_MOTION_DDOT":"0.0000000000000","OBJECT_NAME":"STARLINK-2159","REV_AT_EPOCH":"4119","RA_OF_ASC_NODE":"56.5587","LAUNCH_DATE":"2021-03-04","BSTAR":"0.00011326000000","COUNTRY_CODE":"US","PERIAPSIS":"546.453","EPHEMERIS_TYPE":"0","CLASSIFICATION_TYPE":"U","SITE":"AFETR","OBJECT_ID":"2021-017Z","ARG_OF_PERICENTER":"73.5874","ELEMENT_SET_NO":"999","FILE":"3220686","GP_ID":"190203977","NORAD_CAT_ID":"47745","MEAN_ELEMENT_THEORY":"SGP4","ECCENTRICITY":"0.00011340","DECAY_DATE":null,"SEMIMAJOR_AXIS":"6925.374"},{"OBJECT_TYPE":"PAYLOAD","INCLINATION":"53.0563","MEAN_MOTION_DOT":"-0.00001440","CENTER_NAME":"EARTH","APOAPSIS":"547.895","PERIOD":"95.592","TIME_SYSTEM":"UTC","MEAN_ANOMALY":"281.2487","TLE_LINE2":"2 47746  53.0563  58.3527 0000998  78.8614 281.2487 15.06403212 41126","MEAN_MOTION":"15.06403212","EPOCH":"2021-11-20T23:16:33.583296","OBJECT_NAME":"STARLINK-2160","MEAN_MOTION_DDOT":"0.0000000000000","REV_AT_EPOCH":"4112","RA_OF_ASC_NODE":"58.3527","TLE_LINE1":"1 47746U 21017AA  21324.96983314 -.00001440  00000-0 -77816-4 0  9998","REF_FRAME":"TEME","RCS_SIZE":"LARGE","BSTAR":"-0.00007781600000","COUNTRY_CODE":"US","LAUNCH_DATE":"2021-03-04","CLASSIFICATION_TYPE":"U","PERIAPSIS":"546.513","EPHEMERIS_TYPE":"0","OBJECT_ID":"2021-017AA","ARG_OF_PERICENTER":"78.8614","SITE":"AFETR","GP_ID":"190204227","NORAD_CAT_ID":"47746","ELEMENT_SET_NO":"999","FILE":"3220686","MEAN_ELEMENT_THEORY":"SGP4","ECCENTRICITY":"0.00009980","DECAY_DATE":null,"SEMIMAJOR_AXIS":"6925.339"},{"EPOCH":"2021-11-21T15:07:58.592928","TIME_SYSTEM":"UTC","MEAN_ANOMALY":"282.6158","TLE_LINE2":"2 47747  53.0563  45.4066 0001262  77.4972 282.6158 15.06397523 40743","MEAN_MOTION":"15.06397523","PERIOD":"95.592","OBJECT_TYPE":"PAYLOAD","INCLINATION":"53.0563","MEAN_MOTION_DOT":"0.00001448","CENTER_NAME":"EARTH","APOAPSIS":"548.095","LAUNCH_DATE":"2021-03-04","BSTAR":"0.00011611000000","COUNTRY_CODE":"US","TLE_LINE1":"1 47747U 21017AB  21325.63053927  .00001448  00000-0  11611-3 0  9998","REF_FRAME":"TEME","RCS_SIZE":"LARGE","OBJECT_NAME":"STARLINK-2161","MEAN_MOTION_DDOT":"0.0000000000000","REV_AT_EPOCH":"4074","RA_OF_ASC_NODE":"45.4066","SITE":"AFETR","OBJECT_ID":"2021-017AB","ARG_OF_PERICENTER":"77.4972","PERIAPSIS":"546.347","EPHEMERIS_TYPE":"0","CLASSIFICATION_TYPE":"U","MEAN_ELEMENT_THEORY":"SGP4","ECCENTRICITY":"0.00012620","DECAY_DATE":null,"SEMIMAJOR_AXIS":"6925.356","ELEMENT_SET_NO":"999","FILE":"3220802","GP_ID":"190208313","NORAD_CAT_ID":"47747"},{"DECAY_DATE":null,"SEMIMAJOR_AXIS":"6925.362","MEAN_ELEMENT_THEORY":"SGP4","ECCENTRICITY":"0.00012460","NORAD_CAT_ID":"47748","GP_ID":"190208633","FILE":"3220802","ELEMENT_SET_NO":"999","ARG_OF_PERICENTER":"75.8883","OBJECT_ID":"2021-017AC","SITE":"AFETR","CLASSIFICATION_TYPE":"U","PERIAPSIS":"546.364","EPHEMERIS_TYPE":"0","BSTAR":"0.00000021263000","COUNTRY_CODE":"US","LAUNCH_DATE":"2021-03-04","RA_OF_ASC_NODE":"46.0368","OBJECT_NAME":"STARLINK-2162","MEAN_MOTION_DDOT":"0.0000000000000","REV_AT_EPOCH":"4072","REF_FRAME":"TEME","RCS_SIZE":"LARGE","TLE_LINE1":"1 47748U 21017AC  21325.49047781 -.00000278  00000-0  21263-6 0  9992","MEAN_MOTION":"15.06395547","TLE_LINE2":"2 47748  53.0565  46.0368 0001246  75.8883 284.2244 15.06395547 40729","TIME_SYSTEM":"UTC","MEAN_ANOMALY":"284.2244","EPOCH":"2021-11-21T11:46:17.282784","MEAN_MOTION_DOT":"-0.00000278","CENTER_NAME":"EARTH","APOAPSIS":"548.090","OBJECT_TYPE":"PAYLOAD","INCLINATION":"53.0565","PERIOD":"95.592"},{"ELEMENT_SET_NO":"999","FILE":"3220802","GP_ID":"190208635","NORAD_CAT_ID":"47749","ECCENTRICITY":"0.00011340","MEAN_ELEMENT_THEORY":"SGP4","SEMIMAJOR_AXIS":"6925.367","DECAY_DATE":null,"EPHEMERIS_TYPE":"0","PERIAPSIS":"546.447","CLASSIFICATION_TYPE":"U","SITE":"AFETR","OBJECT_ID":"2021-017AD","ARG_OF_PERICENTER":"84.3649","TLE_LINE1":"1 47749U 21017AD  21325.70425762 -.00000236  00000-0  30120-5 0  9991","RCS_SIZE":"MEDIUM","REF_FRAME":"TEME","REV_AT_EPOCH":"4075","OBJECT_NAME":"STARLINK-2163","MEAN_MOTION_DDOT":"0.0000000000000","RA_OF_ASC_NODE":"45.0564","LAUNCH_DATE":"2021-03-04","COUNTRY_CODE":"US","BSTAR":"0.00000301200000","PERIOD":"95.593","OBJECT_TYPE":"PAYLOAD","INCLINATION":"53.0570","CENTER_NAME":"EARTH","APOAPSIS":"548.018","MEAN_MOTION_DOT":"-0.00000236","EPOCH":"2021-11-21T16:54:07.858368","MEAN_ANOMALY":"275.7469","TIME_SYSTEM":"UTC","TLE_LINE2":"2 47749  53.0570  45.0564 0001134  84.3649 275.7469 15.06393841 40756","MEAN_MOTION":"15.06393841"},{"MEAN_ANOMALY":"280.5652","TIME_SYSTEM":"UTC","MEAN_MOTION":"15.06402968","TLE_LINE2":"2 47750  53.0578  46.0617 0001187  79.5471 280.5652 15.06402968 41359","EPOCH":"2021-11-21T11:35:39.302592","INCLINATION":"53.0578","OBJECT_TYPE":"PAYLOAD","APOAPSIS":"548.026","CENTER_NAME":"EARTH","MEAN_MOTION_DOT":"0.00001232","PERIOD":"95.592","COUNTRY_CODE":"US","BSTAR":"0.00010159000000","LAUNCH_DATE":"2021-03-04","REV_AT_EPOCH":"4135","MEAN_MOTION_DDOT":"0.0000000000000","OBJECT_NAME":"STARLINK-2164","RA_OF_ASC_NODE":"46.0617","TLE_LINE1":"1 47750U 21017AE  21325.48309378  .00001232  00000-0  10159-3 0  9996","RCS_SIZE":"LARGE","REF_FRAME":"TEME","OBJECT_ID":"2021-017AE","ARG_OF_PERICENTER":"79.5471","SITE":"AFETR","CLASSIFICATION_TYPE":"U","EPHEMERIS_TYPE":"0","PERIAPSIS":"546.382","ECCENTRICITY":"0.00011870","MEAN_ELEMENT_THEORY":"SGP4","SEMIMAJOR_AXIS":"6925.339","DECAY_DATE":null,"GP_ID":"190203727","NORAD_CAT_ID":"47750","ELEMENT_SET_NO":"999","FILE":"3220686"}];
